NORAD_CAT_ID,OBJECT_NAME,OBJECT_TYPE,EPOCH,MEAN_MOTION,ECCENTRICITY,INCLINATION,RA_OF_ASC_NODE,ARG_OF_PERICENTER,MEAN_ANOMALY,BSTAR,MEAN_MOTION_DOT,MEAN_MOTION_DDOT,TLE_LINE0,TLE_LINE1,TLE_LINE2,SEMIMAJOR_AXIS,PERIOD,APOGEE,PERIGEE,DECAYED
53618.0,STARLINK-4604,PAYLOAD,2023-04-12 13:54:29,15.08841906,0.0001178,53.2151,322.0387,90.0222,270.0905,-4.2101e-06,-3.55e-06,0.0,0 STARLINK-4604,1 53618U 22104AG  23102.57951021 -.00000355  00000-0 -42101-5 0  9998,2 53618  53.2151 322.0387 0001178  90.0222 270.0905 15.08841906 34719,6917.875,95.437,540.554,538.925,0.0
53618.0,STARLINK-4604,PAYLOAD,2023-04-13 01:02:11,15.08843831,9.88e-05,53.2133,319.9563,80.7891,279.3213,-6.6472e-05,-1.346e-05,0.0,0 STARLINK-4604,1 53618U 22104AG  23103.04319032 -.00001346  00000-0 -66472-4 0  9998,2 53618  53.2133 319.9563 0000988  80.7891 279.3213 15.08843831 34786,6917.869,95.437,540.417,539.05,0.0
53618.0,STARLINK-4604,PAYLOAD,2023-04-14 13:36:03,15.08849596,8.91e-05,53.2148,313.1166,68.4434,291.6653,0.00020809,3.026e-05,0.0,0 STARLINK-4604,1 53618U 22104AG  23104.56670595  .00003026  00000-0  20809-3 0  9998,2 53618  53.2148 313.1166 0000891  68.4434 291.6653 15.08849596 35012,6917.851,95.437,540.332,539.1,0.0
53618.0,STARLINK-4604,PAYLOAD,2023-04-14 23:08:20,15.08884172,9.7e-05,53.2153,311.3321,79.1267,280.9834,0.0007694,0.00011993,0.0,0 STARLINK-4604,1 53618U 22104AG  23104.96412794  .00011993  00000-0  76940-3 0  9996,2 53618  53.2153 311.3321 0000970  79.1267 280.9834 15.08884172 35079,6917.745,95.435,540.281,538.939,0.0
53618.0,STARLINK-4604,PAYLOAD,2023-04-15 13:26:50,15.08842044,0.0001531,53.2148,308.6569,76.0691,284.0471,-6.2883e-05,-1.289e-05,0.0,0 STARLINK-4604,1 53618U 22104AG  23105.56030185 -.00001289  00000-0 -62883-4 0  9994,2 53618  53.2148 308.6569 0001531  76.0691 284.0471 15.08842044 35161,6917.874,95.437,540.798,538.68,0.0
53618.0,STARLINK-4604,PAYLOAD,2023-04-15 19:48:22,15.08836944,0.0001243,53.2173,307.4656,70.4428,289.6698,-0.00021046,-3.635e-05,0.0,0 STARLINK-4604,1 53618U 22104AG  23105.82526372 -.00003635  00000-0 -21046-3 0  9993,2 53618  53.2173 307.4656 0001243  70.4428 289.6698 15.08836944 35208,6917.89,95.438,540.615,538.895,0.0
53618.0,STARLINK-4604,PAYLOAD,2023-04-16 00:34:32,15.08837238,0.0001068,53.2156,306.5732,62.6459,297.4642,-6.6851e-05,-1.351e-05,0.0,0 STARLINK-4604,1 53618U 22104AG  23106.02398477 -.00001351  00000-0 -66851-4 0  9996,2 53618  53.2156 306.5732 0001068  62.6459 297.4642 15.08837238 35232,6917.889,95.438,540.493,539.015,0.0
53618.0,STARLINK-4604,PAYLOAD,2023-04-16 19:39:10,15.08836604,0.0001115,53.2156,303.0051,63.0488,297.0618,-3.5856e-05,-8.58e-06,0.0,0 STARLINK-4604,1 53618U 22104AG  23106.81886969 -.00000858  00000-0 -35856-4 0  9993,2 53618  53.2156 303.0051 0001115  63.0488 297.0618 15.08836604 35356,6917.891,95.438,540.527,538.984,0.0
53618.0,STARLINK-4604,PAYLOAD,2023-04-16 22:49:56,15.08838691,0.0001274,53.2151,302.4098,64.5696,295.5428,0.00010768,1.426e-05,0.0,0 STARLINK-4604,1 53618U 22104AG  23106.95134858  .00001426  00000-0  10768-3 0  9995,2 53618  53.2151 302.4098 0001274  64.5696 295.5428 15.08838691 35370,6917.884,95.438,540.631,538.868,0.0
53618.0,STARLINK-4604,PAYLOAD,2023-04-17 19:29:58,15.08843177,0.0001337,53.2141,298.5433,51.2537,308.8574,0.00045129,6.902e-05,0.0,0 STARLINK-4604,1 53618U 22104AG  23107.81247727  .00006902  00000-0  45129-3 0  9994,2 53618  53.2141 298.5433 0001337  51.2537 308.8574 15.08843177 35504,6917.871,95.437,540.661,538.811,0.0
53618.0,STARLINK-4604,PAYLOAD,2023-04-18 00:16:07,15.0885003,0.0001339,53.2152,297.6524,55.7433,304.3686,0.00055331,8.531e-05,0.0,0 STARLINK-4604,1 53618U 22104AG  23108.01119472  .00008531  00000-0  55331-3 0  9998,2 53618  53.2152 297.6524 0001339  55.7433 304.3686 15.08850030 35537,6917.85,95.437,540.641,538.788,0.0
53618.0,STARLINK-4604,PAYLOAD,2023-04-18 14:34:35,15.08839005,9.84e-05,53.2137,294.9752,64.1357,295.9737,9.8689e-05,1.283e-05,0.0,0 STARLINK-4604,1 53618U 22104AG  23108.60735753  .00001283  00000-0  98689-4 0  9990,2 53618  53.2137 294.9752 0000984  64.1357 295.9737 15.08839005 35628,6917.883,95.438,540.429,539.068,0.0
53618.0,STARLINK-4604,PAYLOAD,2023-04-18 19:20:44,15.08851569,0.000132,53.214,294.0851,59.754,300.3582,0.00038857,5.904e-05,0.0,0 STARLINK-4604,1 53618U 22104AG  23108.80607397  .00005904  00000-0  38857-3 0  9998,2 53618  53.2140 294.0851 0001320  59.7540 300.3582 15.08851569 35653,6917.845,95.437,540.623,538.797,0.0
53618.0,STARLINK-4604,PAYLOAD,2023-04-19 12:49:59,15.08840215,0.0001146,53.2146,290.814,58.6783,301.4321,4.6044e-06,-2.15e-06,0.0,0 STARLINK-4604,1 53618U 22104AG  23109.53471663 -.00000215  00000-0  46044-5 0  9994,2 53618  53.2146 290.8140 0001146  58.6783 301.4321 15.08840215 35768,6917.88,95.438,540.538,538.952,0.0
53618.0,STARLINK-4604,PAYLOAD,2023-04-19 19:11:31,15.08849072,0.000119,53.2146,289.624,70.7756,289.3365,0.00016397,2.323e-05,0.0,0 STARLINK-4604,1 53618U 22104AG  23109.79967239  .00002323  00000-0  16397-3 0  9998,2 53618  53.2146 289.6240 0001190  70.7756 289.3365 15.08849072 35806,6917.853,95.437,540.541,538.894,0.0
53618.0,STARLINK-4604,PAYLOAD,2023-04-20 04:43:50,15.08843501,8.9e-05,53.2138,287.8396,56.0972,304.0105,5.5817e-05,6.01e-06,0.0,0 STARLINK-4604,1 53618U 22104AG  23110.19711293  .00000601  00000-0  55817-4 0  9999,2 53618  53.2138 287.8396 0000890  56.0972 304.0105 15.08843501 35866,6917.87,95.437,540.35,539.119,0.0
53618.0,STARLINK-4604,PAYLOAD,2023-04-20 15:51:33,15.08832685,0.0001058,53.2163,285.7614,85.3889,274.7224,-0.00012794,-2.323e-05,0.0,0 STARLINK-4604,1 53618U 22104AG  23110.66079901 -.00002323  00000-0 -12794-3 0  9995,2 53618  53.2163 285.7614 0001058  85.3889 274.7224 15.08832685 35937,6917.903,95.438,540.5,539.036,0.0
53618.0,STARLINK-4604,PAYLOAD,2023-04-20 23:48:28,15.08843282,0.0001209,53.2143,284.2699,65.8987,294.2132,6.778e-05,7.91e-06,0.0,0 STARLINK-4604,1 53618U 22104AG  23110.99199607  .00000791  00000-0  67780-4 0  9998,2 53618  53.2143 284.2699 0001209  65.8987 294.2132 15.08843282 35987,6917.87,95.437,540.572,538.899,0.0
53618.0,STARLINK-4604,PAYLOAD,2023-04-21 20:28:29,15.08843616,0.0001354,53.2126,280.4024,92.132,267.9827,8.572e-05,1.077e-05,0.0,0 STARLINK-4604,1 53618U 22104AG  23111.85311706  .00001077  00000-0  85720-4 0  9992,2 53618  53.2126 280.4024 0001354  92.1320 267.9827 15.08843616 36118,6917.869,95.437,540.671,538.798,0.0
53618.0,STARLINK-4604,PAYLOAD,2023-04-22 17:08:30,15.08843054,0.0001186,53.2133,276.5396,73.8456,286.2667,0.00021656,3.161e-05,0.0,0 STARLINK-4604,1 53618U 22104AG  23112.71423860  .00003161  00000-0  21656-3 0  9996,2 53618  53.2133 276.5396 0001186  73.8456 286.2667 15.08843054 36249,6917.871,95.437,540.557,538.916,0.0
53618.0,STARLINK-4604,PAYLOAD,2023-04-22 21:54:39,15.08847639,0.0001233,53.2128,275.6481,75.5971,284.5158,0.00016205,2.293e-05,0.0,0 STARLINK-4604,1 53618U 22104AG  23112.91295563  .00002293  00000-0  16205-3 0  9994,2 53618  53.2128 275.6481 0001233  75.5971 284.5158 15.08847639 36274,6917.857,95.437,540.575,538.869,0.0
53618.0,STARLINK-4604,PAYLOAD,2023-04-23 21:45:27,15.08838745,7.68e-05,53.2178,271.1882,51.6985,308.4076,-4.0502e-06,-3.52e-06,0.0,0 STARLINK-4604,1 53618U 22104AG  23113.90656250 -.00000352  00000-0 -40502-5 0  9993,2 53618  53.2178 271.1882 0000768  51.6985 308.4076 15.08838745 36427,6917.884,95.438,540.281,539.218,0.0
53618.0,STARLINK-4604,PAYLOAD,2023-04-25 13:30:05,15.08798789,0.0001212,53.2151,263.7514,105.7986,254.314,-0.0013705,-0.00022008,0.0,0 STARLINK-4604,1 53618U 22104AG  23115.56256174 -.00022008  00000-0 -13705-2 0  9992,2 53618  53.2151 263.7514 0001212 105.7986 254.3140 15.08798789 36675,6918.006,95.44,540.71,539.033,0.0
53618.0,STARLINK-4604,PAYLOAD,2023-04-26 13:20:54,15.0885275,0.000102,53.215,259.2916,94.4125,265.6984,0.0019437,0.00030792,0.0,0 STARLINK-4604,1 53618U 22104AG  23116.55619011  .00030792  00000-0  19437-2 0  9990,2 53618  53.2150 259.2916 0001020  94.4125 265.6984 15.08852750 36823,6917.841,95.437,540.412,539.001,0.0
53618.0,STARLINK-4604,PAYLOAD,2023-04-26 19:42:26,15.08878644,0.0001054,53.2148,258.1017,93.538,266.5733,0.0014769,0.0002332,0.0,0 STARLINK-4604,1 53618U 22104AG  23116.82114389  .00023320  00000-0  14769-2 0  9990,2 53618  53.2148 258.1017 0001054  93.5380 266.5733 15.08878644 36866,6917.762,95.435,540.356,538.898,0.0
53618.0,STARLINK-4604,PAYLOAD,2023-04-27 02:03:59,15.08870562,0.000129,53.2149,256.9126,82.565,277.5489,0.00086247,0.00013476,0.0,0 STARLINK-4604,1 53618U 22104AG  23117.08610185  .00013476  00000-0  86247-3 0  9996,2 53618  53.2149 256.9126 0001290  82.5650 277.5489 15.08870562 36900,6917.787,95.436,540.544,538.76,0.0
53618.0,STARLINK-4604,PAYLOAD,2023-04-27 11:36:17,15.08866097,0.0001229,53.2151,255.1287,98.322,261.7912,0.00027413,4.081e-05,0.0,0 STARLINK-4604,1 53618U 22104AG  23117.48353515  .00004081  00000-0  27413-3 0  9993,2 53618  53.2151 255.1287 0001229  98.3220 261.7912 15.08866097 36962,6917.801,95.436,540.516,538.815,0.0
53618.0,STARLINK-4604,PAYLOAD,2023-04-27 19:33:12,15.08868748,0.0001086,53.2146,253.6412,96.6935,263.418,0.00070474,0.00010955,0.0,0 STARLINK-4604,1 53618U 22104AG  23117.81473063  .00010955  00000-0  70474-3 0  9993,2 53618  53.2146 253.6412 0001086  96.6935 263.4180 15.08868748 37012,6917.793,95.436,540.409,538.906,0.0
53618.0,STARLINK-4604,PAYLOAD,2023-04-28 01:54:44,15.08864101,0.0001224,53.2144,252.4518,69.421,290.6913,0.00018336,2.633e-05,0.0,0 STARLINK-4604,1 53618U 22104AG  23118.07968720  .00002633  00000-0  18336-3 0  9994,2 53618  53.2144 252.4518 0001224  69.4210 290.6913 15.08864101 37051,6917.807,95.436,540.518,538.825,0.0
53618.0,STARLINK-4604,PAYLOAD,2023-04-28 11:27:03,15.08847152,0.0001241,53.214,250.6676,67.0349,293.0774,-0.00016757,-2.954e-05,0.0,0 STARLINK-4604,1 53618U 22104AG  23118.47712822 -.00002954  00000-0 -16757-3 0  9991,2 53618  53.2140 250.6676 0001241  67.0349 293.0774 15.08847152 37114,6917.859,95.437,540.582,538.865,0.0
